{
  "norad_id": 59447,
  "name": "QPS-SAR-7 (TSUKUYOMI-II)",
  "history": [
    {
      "epoch": "2026-03-28T23:08:46.093632Z",
      "apogee_km": 544.1013218875287,
      "perigee_km": 541.5603577548172,
      "latitude_deg": 3.8624211796439885e-05,
      "longitude_deg": 132.44756678454428,
      "height_km": 543.6439892447921,
      "semi_major_axis_km": 6920.967839821173,
      "eccentricity": 0.00018357,
      "inclination_deg": 45.6047,
      "raan_deg": 306.0169,
      "arg_perigee_deg": 234.0347,
      "mean_anomaly_deg": 126.0368,
      "mean_motion_rev_day": 15.0783047
    },
    {
      "epoch": "2026-03-29T02:19:34.828896Z",
      "apogee_km": 544.0990143356248,
      "perigee_km": 541.5451804286895,
      "latitude_deg": 2.8047091805346156e-05,
      "longitude_deg": 83.91958657328807,
      "height_km": 543.6222131185554,
      "semi_major_axis_km": 6920.959097382157,
      "eccentricity": 0.0001845,
      "inclination_deg": 45.6047,
      "raan_deg": 305.3226,
      "arg_perigee_deg": 234.9627,
      "mean_anomaly_deg": 125.1085,
      "mean_motion_rev_day": 15.07833327
    },
    {
      "epoch": "2026-03-30T02:10:39.695808Z",
      "apogee_km": 544.0973419989696,
      "perigee_km": 541.4134199336313,
      "latitude_deg": -4.919047037533485e-05,
      "longitude_deg": 79.96279290972876,
      "height_km": 543.5278145315186,
      "semi_major_axis_km": 6920.8923809663,
      "eccentricity": 0.0001939,
      "inclination_deg": 45.6042,
      "raan_deg": 300.1157,
      "arg_perigee_deg": 238.2914,
      "mean_anomaly_deg": 121.7781,
      "mean_motion_rev_day": 15.0785513
    },
    {
      "epoch": "2026-03-30T06:56:52.545120Z",
      "apogee_km": 544.0944645747313,
      "perigee_km": 541.397950059496,
      "latitude_deg": -5.530490137486666e-06,
      "longitude_deg": 7.171990225789376,
      "height_km": 543.5148638008287,
      "semi_major_axis_km": 6920.883207317113,
      "eccentricity": 0.00019481,
      "inclination_deg": 45.6042,
      "raan_deg": 299.0743,
      "arg_perigee_deg": 238.6451,
      "mean_anomaly_deg": 121.4243,
      "mean_motion_rev_day": 15.07858128
    },
    {
      "epoch": "2026-03-30T14:53:53.846304Z",
      "apogee_km": 544.0683190835007,
      "perigee_km": 541.3808101207351,
      "latitude_deg": 2.5185309336373703e-05,
      "longitude_deg": -114.14591082386674,
      "height_km": 543.4700321299498,
      "semi_major_axis_km": 6920.861564602118,
      "eccentricity": 0.00019416,
      "inclination_deg": 45.6042,
      "raan_deg": 297.3383,
      "arg_perigee_deg": 239.6808,
      "mean_anomaly_deg": 120.3885,
      "mean_motion_rev_day": 15.07865201
    },
    {
      "epoch": "2026-03-30T22:50:54.998016Z",
      "apogee_km": 544.0691226355575,
      "perigee_km": 541.3352527396364,
      "latitude_deg": -1.4548509983621692e-05,
      "longitude_deg": 124.53694403061898,
      "height_km": 543.4368785602801,
      "semi_major_axis_km": 6920.839187687597,
      "eccentricity": 0.00019751,
      "inclination_deg": 45.6042,
      "raan_deg": 295.6025,
      "arg_perigee_deg": 240.7685,
      "mean_anomaly_deg": 119.3002,
      "mean_motion_rev_day": 15.07872514
    },
    {
      "epoch": "2026-03-31T21:06:33.623712Z",
      "apogee_km": 544.069319481333,
      "perigee_km": 541.2248772169114,
      "latitude_deg": -3.2351347252924286e-06,
      "longitude_deg": 144.85130026779154,
      "height_km": 543.3734728554696,
      "semi_major_axis_km": 6920.784098349121,
      "eccentricity": 0.0002055,
      "inclination_deg": 45.6041,
      "raan_deg": 290.742,
      "arg_perigee_deg": 242.3894,
      "mean_anomaly_deg": 117.6782,
      "mean_motion_rev_day": 15.07890518
    },
    {
      "epoch": "2026-04-01T20:57:35.357760Z",
      "apogee_km": 544.0581756142374,
      "perigee_km": 541.1362416313559,
      "latitude_deg": -2.9799392697741492e-05,
      "longitude_deg": 140.90714596877896,
      "height_km": 543.2546838443345,
      "semi_major_axis_km": 6920.734208622796,
      "eccentricity": 0.0002111,
      "inclination_deg": 45.6039,
      "raan_deg": 285.5346,
      "arg_perigee_deg": 246.1743,
      "mean_anomaly_deg": 113.892,
      "mean_motion_rev_day": 15.07906823
    },
    {
      "epoch": "2026-04-02T20:48:35.776800Z",
      "apogee_km": 544.0376701656987,
      "perigee_km": 540.9898155785377,
      "latitude_deg": -5.920714327195211e-06,
      "longitude_deg": 136.9683345068159,
      "height_km": 543.0939913676765,
      "semi_major_axis_km": 6920.650742872118,
      "eccentricity": 0.0002202,
      "inclination_deg": 45.6039,
      "raan_deg": 280.327,
      "arg_perigee_deg": 250.3355,
      "mean_anomaly_deg": 109.7292,
      "mean_motion_rev_day": 15.07934102
    },
    {
      "epoch": "2026-04-02T22:23:59.709408Z",
      "apogee_km": 544.0254981331427,
      "perigee_km": 540.96353392519,
      "latitude_deg": 4.5428761704791e-05,
      "longitude_deg": 112.7061671445793,
      "height_km": 543.0666260585746,
      "semi_major_axis_km": 6920.631516029166,
      "eccentricity": 0.00022122,
      "inclination_deg": 45.604,
      "raan_deg": 279.9798,
      "arg_perigee_deg": 250.7535,
      "mean_anomaly_deg": 109.3111,
      "mean_motion_rev_day": 15.07940386
    },
    {
      "epoch": "2026-04-03T20:39:34.503264Z",
      "apogee_km": 543.9772319610647,
      "perigee_km": 540.8532946694031,
      "latitude_deg": 4.162401441687722e-05,
      "longitude_deg": 133.03661706557776,
      "height_km": 542.920433368736,
      "semi_major_axis_km": 6920.552263315233,
      "eccentricity": 0.0002257,
      "inclination_deg": 45.6038,
      "raan_deg": 275.1194,
      "arg_perigee_deg": 253.7274,
      "mean_anomaly_deg": 106.3363,
      "mean_motion_rev_day": 15.07966289
    },
    {
      "epoch": "2026-04-04T20:30:31.709952Z",
      "apogee_km": 543.9330182928497,
      "perigee_km": 540.7606684990378,
      "latitude_deg": -2.2473649842071037e-05,
      "longitude_deg": 129.11113979686107,
      "height_km": 542.784908297442,
      "semi_major_axis_km": 6920.483843395944,
      "eccentricity": 0.0002292,
      "inclination_deg": 45.604,
      "raan_deg": 269.9118,
      "arg_perigee_deg": 256.4925,
      "mean_anomaly_deg": 103.5704,
      "mean_motion_rev_day": 15.07988652
    },
    {
      "epoch": "2026-04-05T13:59:52.877760Z",
      "apogee_km": 543.8850513327216,
      "perigee_km": 540.7099559824437,
      "latitude_deg": 7.1950838678256724e-06,
      "longitude_deg": -137.76428816288495,
      "height_km": 542.6441908900221,
      "semi_major_axis_km": 6920.434503657582,
      "eccentricity": 0.0002294,
      "inclination_deg": 45.6039,
      "raan_deg": 266.0928,
      "arg_perigee_deg": 259.8748,
      "mean_anomaly_deg": 100.1878,
      "mean_motion_rev_day": 15.08004779
    },
    {
      "epoch": "2026-04-05T20:21:27.724320Z",
      "apogee_km": 543.8895217730751,
      "perigee_km": 540.67844643645,
      "latitude_deg": 1.8008905541280672e-06,
      "longitude_deg": 125.19062934934452,
      "height_km": 542.5981020868903,
      "semi_major_axis_km": 6920.420984104762,
      "eccentricity": 0.000232,
      "inclination_deg": 45.604,
      "raan_deg": 264.7041,
      "arg_perigee_deg": 261.1691,
      "mean_anomaly_deg": 98.8931,
      "mean_motion_rev_day": 15.08009198
    },
    {
      "epoch": "2026-04-05T21:56:51.414144Z",
      "apogee_km": 543.8842159735404,
      "perigee_km": 540.6699604461301,
      "latitude_deg": 2.5796828648226332e-05,
      "longitude_deg": 100.92934955588848,
      "height_km": 542.5885648902652,
      "semi_major_axis_km": 6920.414088209835,
      "eccentricity": 0.00023223,
      "inclination_deg": 45.604,
      "raan_deg": 264.3568,
      "arg_perigee_deg": 261.2732,
      "mean_anomaly_deg": 98.789,
      "mean_motion_rev_day": 15.08011452
    },
    {
      "epoch": "2026-04-07T13:41:42.353376Z",
      "apogee_km": 543.8110018655216,
      "perigee_km": 540.5663379719244,
      "latitude_deg": 1.4377449888638048e-05,
      "longitude_deg": -145.59538379954407,
      "height_km": 542.3791833401867,
      "semi_major_axis_km": 6920.325669918723,
      "eccentricity": 0.00023443,
      "inclination_deg": 45.6041,
      "raan_deg": 255.6767,
      "arg_perigee_deg": 265.6583,
      "mean_anomaly_deg": 94.4034,
      "mean_motion_rev_day": 15.08040353
    },
    {
      "epoch": "2026-04-07T20:03:16.665120Z",
      "apogee_km": 543.8004151612522,
      "perigee_km": 540.5547876132023,
      "latitude_deg": -2.6659378461659076e-05,
      "longitude_deg": 117.3619332041617,
      "height_km": 542.3365620796218,
      "semi_major_axis_km": 6920.314601387227,
      "eccentricity": 0.0002345,
      "inclination_deg": 45.6042,
      "raan_deg": 254.2882,
      "arg_perigee_deg": 266.7768,
      "mean_anomaly_deg": 93.2848,
      "mean_motion_rev_day": 15.08043971
    },
    {
      "epoch": "2026-04-08T13:32:35.602080Z",
      "apogee_km": 543.7779687393377,
      "perigee_km": 540.5077212957767,
      "latitude_deg": 5.302399262452979e-06,
      "longitude_deg": -149.50427291522095,
      "height_km": 542.2348648299152,
      "semi_major_axis_km": 6920.279845017557,
      "eccentricity": 0.00023628,
      "inclination_deg": 45.6041,
      "raan_deg": 250.4691,
      "arg_perigee_deg": 269.1487,
      "mean_anomaly_deg": 90.9127,
      "mean_motion_rev_day": 15.08055332
    },
    {
      "epoch": "2026-04-09T19:45:01.793088Z",
      "apogee_km": 543.7527338833916,
      "perigee_km": 540.411652057026,
      "latitude_deg": 2.8897309346097686e-05,
      "longitude_deg": 109.54954840773189,
      "height_km": 542.0408254739169,
      "semi_major_axis_km": 6920.2191929702085,
      "eccentricity": 0.0002414,
      "inclination_deg": 45.6038,
      "raan_deg": 243.8726,
      "arg_perigee_deg": 273.7448,
      "mean_anomaly_deg": 86.3161,
      "mean_motion_rev_day": 15.08075158
    }
  ]
}